COSMOS 2493 (SKRL-756 1)
1 39490U 13078A   26068.88109627  .00005252  00000+0  40276-3 0  9992
2 39490  82.4165 358.3033 0011855 214.7485 145.2966 15.01584319663059
STARLINK-6270           
1 56421U 23061AZ  26068.31761719 -.00000387  00000+0 -13581-4 0  9998
2 56421  43.0045 173.9129 0001325 267.6382  92.4309 15.02532108156997
